[{"OBJECT_NAME":"IRIDIUM 33 DEB","OBJECT_ID":"1997-051BV","EPOCH":"2026-03-06T11:32:32.744256","MEAN_MOTION":14.90117286,"ECCENTRICITY":0.00025107,"INCLINATION":86.2493,"RA_OF_ASC_NODE":249.8642,"ARG_OF_PERICENTER":121.7652,"MEAN_ANOMALY":268.0175,"EPHEMERIS_TYPE":0,"CLASSIFICATION_TYPE":"U","NORAD_CAT_ID":33960,"ELEMENT_SET_NO":999,"REV_AT_EPOCH":90112,"BSTAR":0.0027635744,"MEAN_MOTION_DOT":0.00026816,"MEAN_MOTION_DDOT":0},{"OBJECT_NAME":"IRIDIUM 33 DEB","OBJECT_ID":"1997-051CB","EPOCH":"2026-03-06T15:14:37.460256","MEAN_MOTION":14.50028764,"ECCENTRICITY":0.00053206,"INCLINATION":86.3971,"RA_OF_ASC_NODE":10.0081,"ARG_OF_PERICENTER":294.9211,"MEAN_ANOMALY":243.5164,"EPHEMERIS_TYPE":0,"CLASSIFICATION_TYPE":"U","NORAD_CAT_ID":33966,"ELEMENT_SET_NO":999,"REV_AT_EPOCH":89657,"BSTAR":0.00084332139,"MEAN_MOTION_DOT":3.286e-5,"MEAN_MOTION_DDOT":0},{"OBJECT_NAME":"IRIDIUM 33 DEB","OBJECT_ID":"1997-051CE","EPOCH":"2026-03-06T05:56:47.169888","MEAN_MOTION":14.49982221,"ECCENTRICITY":0.00068364,"INCLINATION":86.3501,"RA_OF_ASC_NODE":341.5331,"ARG_OF_PERICENTER":172.7359,"MEAN_ANOMALY":187.3946,"EPHEMERIS_TYPE":0,"CLASSIFICATION_TYPE":"U","NORAD_CAT_ID":34071,"ELEMENT_SET_NO":999,"REV_AT_EPOCH":89544,"BSTAR":0.00080528653,"MEAN_MOTION_DOT":3.136e-5,"MEAN_MOTION_DDOT":0},{"OBJECT_NAME":"IRIDIUM 33 DEB","OBJECT_ID":"1997-051CL","EPOCH":"2026-03-06T15:10:30.637920","MEAN_MOTION":14.66545101,"ECCENTRICITY":0.00121551,"INCLINATION":86.3892,"RA_OF_ASC_NODE":14.4963,"ARG_OF_PERICENTER":94.0929,"MEAN_ANOMALY":82.3623,"EPHEMERIS_TYPE":0,"CLASSIFICATION_TYPE":"U","NORAD_CAT_ID":34077,"ELEMENT_SET_NO":999,"REV_AT_EPOCH":89561,"BSTAR":0.0019923307,"MEAN_MOTION_DOT":0.00011089,"MEAN_MOTION_DDOT":0},{"OBJECT_NAME":"IRIDIUM 33 DEB","OBJECT_ID":"1997-051CN","EPOCH":"2026-03-06T04:40:41.253024","MEAN_MOTION":14.86930464,"ECCENTRICITY":0.00095184,"INCLINATION":86.3788,"RA_OF_ASC_NODE":330.6183,"ARG_OF_PERICENTER":55.5711,"MEAN_ANOMALY":65.1549,"EPHEMERIS_TYPE":0,"CLASSIFICATION_TYPE":"U","NORAD_CAT_ID":34079,"ELEMENT_SET_NO":999,"REV_AT_EPOCH":90216,"BSTAR":0.0018902934,"MEAN_MOTION_DOT":0.00016955,"MEAN_MOTION_DDOT":0},{"OBJECT_NAME":"IRIDIUM 33 DEB","OBJECT_ID":"1997-051CX","EPOCH":"2026-03-06T13:16:58.064448","MEAN_MOTION":14.97770412,"ECCENTRICITY":0.00017537,"INCLINATION":86.3863,"RA_OF_ASC_NODE":352.0376,"ARG_OF_PERICENTER":69.8609,"MEAN_ANOMALY":111.3377,"EPHEMERIS_TYPE":0,"CLASSIFICATION_TYPE":"U","NORAD_CAT_ID":34088,"ELEMENT_SET_NO":999,"REV_AT_EPOCH":89993,"BSTAR":0.0039853506,"MEAN_MOTION_DOT":0.00047041,"MEAN_MOTION_DDOT":0},{"OBJECT_NAME":"IRIDIUM 33 DEB","OBJECT_ID":"1997-051DA","EPOCH":"2026-03-06T15:21:06.154848","MEAN_MOTION":14.89475926,"ECCENTRICITY":0.00323868,"INCLINATION":86.3449,"RA_OF_ASC_NODE":28.1837,"ARG_OF_PERICENTER":9.8024,"MEAN_ANOMALY":350.3827,"EPHEMERIS_TYPE":0,"CLASSIFICATION_TYPE":"U","NORAD_CAT_ID":34091,"ELEMENT_SET_NO":999,"REV_AT_EPOCH":89112,"BSTAR":0.0066477565,"MEAN_MOTION_DOT":0.00064402,"MEAN_MOTION_DDOT":0},{"OBJECT_NAME":"IRIDIUM 33 DEB","OBJECT_ID":"1997-051DG","EPOCH":"2026-03-06T04:29:26.933856","MEAN_MOTION":14.3551843,"ECCENTRICITY":0.00838453,"INCLINATION":86.2014,"RA_OF_ASC_NODE":324.5679,"ARG_OF_PERICENTER":87.6983,"MEAN_ANOMALY":273.381,"EPHEMERIS_TYPE":0,"CLASSIFICATION_TYPE":"U","NORAD_CAT_ID":34097,"ELEMENT_SET_NO":999,"REV_AT_EPOCH":88316,"BSTAR":0.0014185881,"MEAN_MOTION_DOT":4.267e-5,"MEAN_MOTION_DDOT":0},{"OBJECT_NAME":"IRIDIUM 33 DEB","OBJECT_ID":"1997-051DY","EPOCH":"2026-03-06T14:25:26.027616","MEAN_MOTION":14.43071771,"ECCENTRICITY":0.00520975,"INCLINATION":86.2087,"RA_OF_ASC_NODE":295.1617,"ARG_OF_PERICENTER":175.4494,"MEAN_ANOMALY":184.7191,"EPHEMERIS_TYPE":0,"CLASSIFICATION_TYPE":"U","NORAD_CAT_ID":34145,"ELEMENT_SET_NO":999,"REV_AT_EPOCH":88847,"BSTAR":0.0010526205,"MEAN_MOTION_DOT":3.606e-5,"MEAN_MOTION_DDOT":0},{"OBJECT_NAME":"IRIDIUM 33 DEB","OBJECT_ID":"1997-051DZ","EPOCH":"2026-03-06T15:12:08.536896","MEAN_MOTION":14.49718993,"ECCENTRICITY":0.00257231,"INCLINATION":86.2832,"RA_OF_ASC_NODE":312.7395,"ARG_OF_PERICENTER":310.4169,"MEAN_ANOMALY":70.027,"EPHEMERIS_TYPE":0,"CLASSIFICATION_TYPE":"U","NORAD_CAT_ID":34146,"ELEMENT_SET_NO":999,"REV_AT_EPOCH":89322,"BSTAR":0.00082860977,"MEAN_MOTION_DOT":3.222e-5,"MEAN_MOTION_DDOT":0},{"OBJECT_NAME":"IRIDIUM 33 DEB","OBJECT_ID":"1997-051EN","EPOCH":"2026-03-06T18:09:27.976320","MEAN_MOTION":14.387444,"ECCENTRICITY":0.0028952,"INCLINATION":86.3549,"RA_OF_ASC_NODE":12.4074,"ARG_OF_PERICENTER":15.866,"MEAN_ANOMALY":344.3438,"EPHEMERIS_TYPE":0,"CLASSIFICATION_TYPE":"U","NORAD_CAT_ID":34159,"ELEMENT_SET_NO":999,"REV_AT_EPOCH":89167,"BSTAR":0.00066478,"MEAN_MOTION_DOT":2.069e-5,"MEAN_MOTION_DDOT":0},{"OBJECT_NAME":"IRIDIUM 33 DEB","OBJECT_ID":"1997-051ES","EPOCH":"2026-03-06T05:38:30.287328","MEAN_MOTION":14.45682981,"ECCENTRICITY":0.00193128,"INCLINATION":86.3307,"RA_OF_ASC_NODE":326.5912,"ARG_OF_PERICENTER":218.3358,"MEAN_ANOMALY":268.9854,"EPHEMERIS_TYPE":0,"CLASSIFICATION_TYPE":"U","NORAD_CAT_ID":34350,"ELEMENT_SET_NO":999,"REV_AT_EPOCH":89499,"BSTAR":0.00044296093,"MEAN_MOTION_DOT":1.59e-5,"MEAN_MOTION_DDOT":0},{"OBJECT_NAME":"IRIDIUM 33 DEB","OBJECT_ID":"1997-051FJ","EPOCH":"2026-03-06T19:25:57.744768","MEAN_MOTION":14.54977666,"ECCENTRICITY":0.0018137,"INCLINATION":86.3731,"RA_OF_ASC_NODE":12.7147,"ARG_OF_PERICENTER":213.6582,"MEAN_ANOMALY":175.2134,"EPHEMERIS_TYPE":0,"CLASSIFICATION_TYPE":"U","NORAD_CAT_ID":34366,"ELEMENT_SET_NO":999,"REV_AT_EPOCH":89404,"BSTAR":0.0015632,"MEAN_MOTION_DOT":6.763e-5,"MEAN_MOTION_DDOT":0},{"OBJECT_NAME":"IRIDIUM 33 DEB","OBJECT_ID":"1997-051FT","EPOCH":"2026-03-06T05:32:03.687072","MEAN_MOTION":14.18172186,"ECCENTRICITY":0.01009904,"INCLINATION":86.4351,"RA_OF_ASC_NODE":149.0725,"ARG_OF_PERICENTER":220.6885,"MEAN_ANOMALY":166.2246,"EPHEMERIS_TYPE":0,"CLASSIFICATION_TYPE":"U","NORAD_CAT_ID":34375,"ELEMENT_SET_NO":999,"REV_AT_EPOCH":87895,"BSTAR":0.00060826534,"MEAN_MOTION_DOT":1.331e-5,"MEAN_MOTION_DDOT":0},{"OBJECT_NAME":"IRIDIUM 33 DEB","OBJECT_ID":"1997-051FU","EPOCH":"2026-03-06T10:30:49.405248","MEAN_MOTION":14.64474447,"ECCENTRICITY":0.00224506,"INCLINATION":86.2993,"RA_OF_ASC_NODE":328.8681,"ARG_OF_PERICENTER":246.6245,"MEAN_ANOMALY":113.2606,"EPHEMERIS_TYPE":0,"CLASSIFICATION_TYPE":"U","NORAD_CAT_ID":34376,"ELEMENT_SET_NO":999,"REV_AT_EPOCH":89231,"BSTAR":0.0016407609,"MEAN_MOTION_DOT":8.744e-5,"MEAN_MOTION_DDOT":0},{"OBJECT_NAME":"IRIDIUM 33 DEB","OBJECT_ID":"1997-051GB","EPOCH":"2026-03-06T06:15:04.597632","MEAN_MOTION":15.0189617,"ECCENTRICITY":0.00092033,"INCLINATION":86.3943,"RA_OF_ASC_NODE":333.3044,"ARG_OF_PERICENTER":148.6473,"MEAN_ANOMALY":338.7894,"EPHEMERIS_TYPE":0,"CLASSIFICATION_TYPE":"U","NORAD_CAT_ID":34486,"ELEMENT_SET_NO":999,"REV_AT_EPOCH":90237,"BSTAR":0.0025460555,"MEAN_MOTION_DOT":0.00033431,"MEAN_MOTION_DDOT":0}]
