IRIDIUM 33 DEB          
1 33960U 97051BV  26065.48093454  .00026816  00000+0  27636-2 0  9997
2 33960  86.2493 249.8642 0002510 121.7652 268.0175 14.90117286901123
IRIDIUM 33 DEB          
1 33966U 97051CB  26065.63515579  .00003286  00000+0  84332-3 0  9990
2 33966  86.3971  10.0081 0005320 294.9211 243.5164 14.50028764896578
IRIDIUM 33 DEB          
1 34071U 97051CE  26065.24776817  .00003136  00000+0  80529-3 0  9997
2 34071  86.3501 341.5331 0006836 172.7359 187.3946 14.49982221895447
IRIDIUM 33 DEB          
1 34077U 97051CL  26065.63229905  .00011089  00000+0  19923-2 0  9992
2 34077  86.3892  14.4963 0012155  94.0929  82.3623 14.66545101895619
IRIDIUM 33 DEB          
1 34079U 97051CN  26065.19492191  .00016955  00000+0  18903-2 0  9998
2 34079  86.3788 330.6183 0009518  55.5711  65.1549 14.86930464902169
IRIDIUM 33 DEB          
1 34088U 97051CX  26065.55344982  .00047041  00000+0  39854-2 0  9990
2 34088  86.3863 352.0376 0001753  69.8609 111.3377 14.97770412899932
IRIDIUM 33 DEB          
1 34091U 97051DA  26065.63965457  .00064402  00000+0  66478-2 0  9991
2 34091  86.3449  28.1837 0032386   9.8024 350.3827 14.89475926891121
IRIDIUM 33 DEB          
1 34097U 97051DG  26065.18711729  .00004267  00000+0  14186-2 0  9990
2 34097  86.2014 324.5679 0083845  87.6983 273.3810 14.35518430883165
IRIDIUM 33 DEB          
1 34145U 97051DY  26065.60099569  .00003606  00000+0  10526-2 0  9992
2 34145  86.2087 295.1617 0052097 175.4494 184.7191 14.43071771888479
IRIDIUM 33 DEB          
1 34146U 97051DZ  26065.63343214  .00003222  00000+0  82861-3 0  9991
2 34146  86.2832 312.7395 0025723 310.4169  70.0270 14.49718993893227
IRIDIUM 33 DEB          
1 34159U 97051EN  26065.75657380  .00002069  00000+0  66478-3 0  9994
2 34159  86.3549  12.4074 0028952  15.8660 344.3438 14.38744400891674
IRIDIUM 33 DEB          
1 34350U 97051ES  26065.23507277  .00001590  00000+0  44296-3 0  9991
2 34350  86.3307 326.5912 0019312 218.3358 268.9854 14.45682981894997
IRIDIUM 33 DEB          
1 34366U 97051FJ  26065.80969612  .00006763  00000+0  15632-2 0  9994
2 34366  86.3731  12.7147 0018137 213.6582 175.2134 14.54977666894044
IRIDIUM 33 DEB          
1 34375U 97051FT  26065.23059823  .00001331  00000+0  60827-3 0  9998
2 34375  86.4351 149.0725 0100990 220.6885 166.2246 14.18172186878952
IRIDIUM 33 DEB          
1 34376U 97051FU  26065.43807182  .00008744  00000+0  16408-2 0  9990
2 34376  86.2993 328.8681 0022450 246.6245 113.2606 14.64474447892317
IRIDIUM 33 DEB          
1 34486U 97051GB  26065.26046988  .00033431  00000+0  25461-2 0  9992
2 34486  86.3943 333.3044 0009203 148.6473 338.7894 15.01896170902378
